[{"OBJECT_NAME":"STARLINK-30710","OBJECT_ID":"2023-148D","EPOCH":"2026-03-09T02:12:54.289728","MEAN_MOTION":15.3019127,"ECCENTRICITY":0.00013365,"INCLINATION":53.162,"RA_OF_ASC_NODE":16.9954,"ARG_OF_PERICENTER":96.4809,"MEAN_ANOMALY":263.6344,"EPHEMERIS_TYPE":0,"CLASSIFICATION_TYPE":"U","NORAD_CAT_ID":57938,"ELEMENT_SET_NO":999,"REV_AT_EPOCH":13846,"BSTAR":2.036051e-6,"MEAN_MOTION_DOT":-2.99e-6,"MEAN_MOTION_DDOT":0},{"OBJECT_NAME":"YAOGAN-43 01F","OBJECT_ID":"2024-148F","EPOCH":"2026-03-10T00:23:08.877408","MEAN_MOTION":15.29824616,"ECCENTRICITY":0.00057048,"INCLINATION":34.9925,"RA_OF_ASC_NODE":59.8891,"ARG_OF_PERICENTER":18.4862,"MEAN_ANOMALY":341.6062,"EPHEMERIS_TYPE":0,"CLASSIFICATION_TYPE":"U","NORAD_CAT_ID":60463,"ELEMENT_SET_NO":999,"REV_AT_EPOCH":8707,"BSTAR":0.00058388219,"MEAN_MOTION_DOT":0.00017308,"MEAN_MOTION_DDOT":0}]
